CCSDS_OMM_VERS = 2.0
CREATION_DATE  = 
ORIGINATOR     = 

OBJECT_NAME    = STARLINK-36637
OBJECT_ID      = 2026-020S
CENTER_NAME    = EARTH
REF_FRAME      = TEME
TIME_SYSTEM    = UTC
MEAN_ELEMENT_THEORY = SGP/SGP4

EPOCH          = 2026-02-18T00:38:50.240832
MEAN_MOTION    = 15.76438526
ECCENTRICITY   = .00019432
INCLINATION    = 42.9972
RA_OF_ASC_NODE = 261.5985
ARG_OF_PERICENTER = 270.3809
MEAN_ANOMALY   = 89.6838

EPHEMERIS_TYPE = 0
CLASSIFICATION_TYPE = U
NORAD_CAT_ID   = 67633
ELEMENT_SET_NO = 999
REV_AT_EPOCH   = 298
BSTAR          = .15735872E-2
MEAN_MOTION_DOT = .264768E-2
MEAN_MOTION_DDOT = 0

CCSDS_OMM_VERS = 2.0
CREATION_DATE  = 
ORIGINATOR     = 

OBJECT_NAME    = STARLINK-36617
OBJECT_ID      = 2026-020T
CENTER_NAME    = EARTH
REF_FRAME      = TEME
TIME_SYSTEM    = UTC
MEAN_ELEMENT_THEORY = SGP/SGP4

EPOCH          = 2026-02-18T13:39:06.388416
MEAN_MOTION    = 15.82281083
ECCENTRICITY   = .00021254
INCLINATION    = 42.9967
RA_OF_ASC_NODE = 257.9029
ARG_OF_PERICENTER = 234.8045
MEAN_ANOMALY   = 125.2628

EPHEMERIS_TYPE = 0
CLASSIFICATION_TYPE = U
NORAD_CAT_ID   = 67634
ELEMENT_SET_NO = 999
REV_AT_EPOCH   = 307
BSTAR          = .25814894E-2
MEAN_MOTION_DOT = .588915E-2
MEAN_MOTION_DDOT = 0

CCSDS_OMM_VERS = 2.0
CREATION_DATE  = 
ORIGINATOR     = 

OBJECT_NAME    = STARLINK-36627
OBJECT_ID      = 2026-020U
CENTER_NAME    = EARTH
REF_FRAME      = TEME
TIME_SYSTEM    = UTC
MEAN_ELEMENT_THEORY = SGP/SGP4

EPOCH          = 2026-02-17T22:58:08.884128
MEAN_MOTION    = 15.76418041
ECCENTRICITY   = .0001778
INCLINATION    = 42.9966
RA_OF_ASC_NODE = 261.9306
ARG_OF_PERICENTER = 275.3532
MEAN_ANOMALY   = 84.7135

EPHEMERIS_TYPE = 0
CLASSIFICATION_TYPE = U
NORAD_CAT_ID   = 67635
ELEMENT_SET_NO = 999
REV_AT_EPOCH   = 297
BSTAR          = .22253E-2
MEAN_MOTION_DOT = .379458E-2
MEAN_MOTION_DDOT = 0

CCSDS_OMM_VERS = 2.0
CREATION_DATE  = 
ORIGINATOR     = 

OBJECT_NAME    = STARLINK-36624
OBJECT_ID      = 2026-020V
CENTER_NAME    = EARTH
REF_FRAME      = TEME
TIME_SYSTEM    = UTC
MEAN_ELEMENT_THEORY = SGP/SGP4

EPOCH          = 2026-02-18T14:00:03.000384
MEAN_MOTION    = 15.76392258
ECCENTRICITY   = .00015378
INCLINATION    = 42.9996
RA_OF_ASC_NODE = 257.8442
ARG_OF_PERICENTER = 273.5156
MEAN_ANOMALY   = 157.1905

EPHEMERIS_TYPE = 0
CLASSIFICATION_TYPE = U
NORAD_CAT_ID   = 67636
ELEMENT_SET_NO = 999
REV_AT_EPOCH   = 431
BSTAR          = -.17478721E-3
MEAN_MOTION_DOT = -.28885E-3
MEAN_MOTION_DDOT = 0

CCSDS_OMM_VERS = 2.0
CREATION_DATE  = 
ORIGINATOR     = 

OBJECT_NAME    = STARLINK-36610
OBJECT_ID      = 2026-020W
CENTER_NAME    = EARTH
REF_FRAME      = TEME
TIME_SYSTEM    = UTC
MEAN_ELEMENT_THEORY = SGP/SGP4

EPOCH          = 2026-02-17T23:01:18.017184
MEAN_MOTION    = 15.76435465
ECCENTRICITY   = .0001662
INCLINATION    = 42.9970
RA_OF_ASC_NODE = 261.9484
ARG_OF_PERICENTER = 267.0936
MEAN_ANOMALY   = 92.9744

EPHEMERIS_TYPE = 0
CLASSIFICATION_TYPE = U
NORAD_CAT_ID   = 67637
ELEMENT_SET_NO = 999
REV_AT_EPOCH   = 297
BSTAR          = .22548E-2
MEAN_MOTION_DOT = .385039E-2
MEAN_MOTION_DDOT = 0

CCSDS_OMM_VERS = 2.0
CREATION_DATE  = 
ORIGINATOR     = 

OBJECT_NAME    = STARLINK-36599
OBJECT_ID      = 2026-020X
CENTER_NAME    = EARTH
REF_FRAME      = TEME
TIME_SYSTEM    = UTC
MEAN_ELEMENT_THEORY = SGP/SGP4

EPOCH          = 2026-02-18T13:33:07.528608
MEAN_MOTION    = 15.82241512
ECCENTRICITY   = .00028336
INCLINATION    = 42.9966
RA_OF_ASC_NODE = 257.8680
ARG_OF_PERICENTER = 223.0209
MEAN_ANOMALY   = 137.0441

EPHEMERIS_TYPE = 0
CLASSIFICATION_TYPE = U
NORAD_CAT_ID   = 67638
ELEMENT_SET_NO = 999
REV_AT_EPOCH   = 307
BSTAR          = .19450948E-2
MEAN_MOTION_DOT = .434852E-2
MEAN_MOTION_DDOT = 0

CCSDS_OMM_VERS = 2.0
CREATION_DATE  = 
ORIGINATOR     = 

OBJECT_NAME    = STARLINK-36595
OBJECT_ID      = 2026-020Y
CENTER_NAME    = EARTH
REF_FRAME      = TEME
TIME_SYSTEM    = UTC
MEAN_ELEMENT_THEORY = SGP/SGP4

EPOCH          = 2026-02-18T14:00:03.000384
MEAN_MOTION    = 15.78556229
ECCENTRICITY   = .00013577
INCLINATION    = 42.9991
RA_OF_ASC_NODE = 257.7552
ARG_OF_PERICENTER = 272.4295
MEAN_ANOMALY   = 193.5646

EPHEMERIS_TYPE = 0
CLASSIFICATION_TYPE = U
NORAD_CAT_ID   = 67639
ELEMENT_SET_NO = 999
REV_AT_EPOCH   = 431
BSTAR          = -.1176487E-1
MEAN_MOTION_DOT = -.1848721E-1
MEAN_MOTION_DDOT = 0

CCSDS_OMM_VERS = 2.0
CREATION_DATE  = 
ORIGINATOR     = 

OBJECT_NAME    = STARLINK-36570
OBJECT_ID      = 2026-020Z
CENTER_NAME    = EARTH
REF_FRAME      = TEME
TIME_SYSTEM    = UTC
MEAN_ELEMENT_THEORY = SGP/SGP4

EPOCH          = 2026-02-18T14:04:13.205280
MEAN_MOTION    = 15.76653268
ECCENTRICITY   = .0002574
INCLINATION    = 42.9966
RA_OF_ASC_NODE = 258.0431
ARG_OF_PERICENTER = 321.8286
MEAN_ANOMALY   = 38.2401

EPHEMERIS_TYPE = 0
CLASSIFICATION_TYPE = U
NORAD_CAT_ID   = 67640
ELEMENT_SET_NO = 999
REV_AT_EPOCH   = 307
BSTAR          = .19586422E-2
MEAN_MOTION_DOT = .335656E-2
MEAN_MOTION_DDOT = 0

CCSDS_OMM_VERS = 2.0
CREATION_DATE  = 
ORIGINATOR     = 

OBJECT_NAME    = STARLINK-36514
OBJECT_ID      = 2026-020AA
CENTER_NAME    = EARTH
REF_FRAME      = TEME
TIME_SYSTEM    = UTC
MEAN_ELEMENT_THEORY = SGP/SGP4

EPOCH          = 2026-02-16T23:35:53.162016
MEAN_MOTION    = 15.82095372
ECCENTRICITY   = .0001841
INCLINATION    = 42.9960
RA_OF_ASC_NODE = 267.5163
ARG_OF_PERICENTER = 261.8111
MEAN_ANOMALY   = 98.2552

EPHEMERIS_TYPE = 0
CLASSIFICATION_TYPE = U
NORAD_CAT_ID   = 67641
ELEMENT_SET_NO = 999
REV_AT_EPOCH   = 282
BSTAR          = .49143275E-3
MEAN_MOTION_DOT = .104594E-2
MEAN_MOTION_DDOT = 0

CCSDS_OMM_VERS = 2.0
CREATION_DATE  = 
ORIGINATOR     = 

OBJECT_NAME    = STARLINK-36556
OBJECT_ID      = 2026-020AB
CENTER_NAME    = EARTH
REF_FRAME      = TEME
TIME_SYSTEM    = UTC
MEAN_ELEMENT_THEORY = SGP/SGP4

EPOCH          = 2026-02-18T14:00:03.000384
MEAN_MOTION    = 15.76337149
ECCENTRICITY   = .00018358
INCLINATION    = 42.9983
RA_OF_ASC_NODE = 257.9051
ARG_OF_PERICENTER = 261.7918
MEAN_ANOMALY   = 144.0599

EPHEMERIS_TYPE = 0
CLASSIFICATION_TYPE = U
NORAD_CAT_ID   = 67642
ELEMENT_SET_NO = 999
REV_AT_EPOCH   = 432
BSTAR          = .32248704E-3
MEAN_MOTION_DOT = .52284E-3
MEAN_MOTION_DDOT = 0

CCSDS_OMM_VERS = 2.0
CREATION_DATE  = 
ORIGINATOR     = 

OBJECT_NAME    = STARLINK-36533
OBJECT_ID      = 2026-020AC
CENTER_NAME    = EARTH
REF_FRAME      = TEME
TIME_SYSTEM    = UTC
MEAN_ELEMENT_THEORY = SGP/SGP4

EPOCH          = 2026-02-18T14:07:21.823392
MEAN_MOTION    = 15.76538125
ECCENTRICITY   = .00019164
INCLINATION    = 42.9963
RA_OF_ASC_NODE = 258.0604
ARG_OF_PERICENTER = 254.5545
MEAN_ANOMALY   = 105.5113

EPHEMERIS_TYPE = 0
CLASSIFICATION_TYPE = U
NORAD_CAT_ID   = 67643
ELEMENT_SET_NO = 999
REV_AT_EPOCH   = 307
BSTAR          = .17029324E-2
MEAN_MOTION_DOT = .288658E-2
MEAN_MOTION_DDOT = 0

CCSDS_OMM_VERS = 2.0
CREATION_DATE  = 
ORIGINATOR     = 

OBJECT_NAME    = STARLINK-36623
OBJECT_ID      = 2026-020AD
CENTER_NAME    = EARTH
REF_FRAME      = TEME
TIME_SYSTEM    = UTC
MEAN_ELEMENT_THEORY = SGP/SGP4

EPOCH          = 2026-02-17T22:45:32.105664
MEAN_MOTION    = 15.76432828
ECCENTRICITY   = .0001705
INCLINATION    = 42.9971
RA_OF_ASC_NODE = 261.8562
ARG_OF_PERICENTER = 299.5909
MEAN_ANOMALY   = 60.4791

EPHEMERIS_TYPE = 0
CLASSIFICATION_TYPE = U
NORAD_CAT_ID   = 67644
ELEMENT_SET_NO = 999
REV_AT_EPOCH   = 297
BSTAR          = .22612E-2
MEAN_MOTION_DOT = .386134E-2
MEAN_MOTION_DDOT = 0

