STARLINK-36637          
1 67633U 26020S   26049.02697038  .00264768  00000+0  15736-2 0  9997
2 67633  42.9972 261.5985 0001943 270.3809  89.6838 15.76438526  2980
STARLINK-36617          
1 67634U 26020T   26049.56882394  .00588915  00000+0  25815-2 0  9990
2 67634  42.9967 257.9029 0002125 234.8045 125.2628 15.82281083  3079
STARLINK-36627          
1 67635U 26020U   26048.95704727  .00379458  00000+0  22253-2 0  9999
2 67635  42.9966 261.9306 0001778 275.3532  84.7135 15.76418041  2975
STARLINK-36624          
1 67636U 26020V   26049.58336806 -.00028885  00000+0 -17479-3 0  9991
2 67636  42.9996 257.8442 0001537 273.5156 157.1905 15.76392258  4310
STARLINK-36610          
1 67637U 26020W   26048.95923631  .00385039  00000+0  22548-2 0  9997
2 67637  42.9970 261.9484 0001662 267.0936  92.9744 15.76435465  2973
STARLINK-36599          
1 67638U 26020X   26049.56467047  .00434852  00000+0  19451-2 0  9997
2 67638  42.9966 257.8680 0002833 223.0209 137.0441 15.82241512  3079
STARLINK-36595          
1 67639U 26020Y   26049.58336806 -.01848721  00000+0 -11765-1 0  9994
2 67639  42.9991 257.7552 0001357 272.4295 193.5646 15.78556229  4319
STARLINK-36570          
1 67640U 26020Z   26049.58626395  .00335656  00000+0  19586-2 0  9996
2 67640  42.9966 258.0431 0002574 321.8286  38.2401 15.76653268  3079
STARLINK-36514          
1 67641U 26020AA  26047.98325419  .00104594  00000+0  49143-3 0  9990
2 67641  42.9960 267.5163 0001841 261.8111  98.2552 15.82095372  2825
STARLINK-36556          
1 67642U 26020AB  26049.58336806  .00052284  00000+0  32249-3 0  9998
2 67642  42.9983 257.9051 0001835 261.7918 144.0599 15.76337149  4329
STARLINK-36533          
1 67643U 26020AC  26049.58844703  .00288658  00000+0  17029-2 0  9993
2 67643  42.9963 258.0604 0001916 254.5545 105.5113 15.76538125  3072
STARLINK-36623          
1 67644U 26020AD  26048.94828826  .00386134  00000+0  22612-2 0  9993
2 67644  42.9971 261.8562 0001705 299.5909  60.4791 15.76432828  2978
